{"type": "FeatureCollection", "features": [{"type": "Feature", "properties": {"norad_id": 24946, "name": "IRIDIUM 33", "group": "iridium-33-debris", "lat": 76.69398651820458, "lon": -133.30435399328803, "alt_km": 763.927959301428, "timestamp": "2025-12-27T02:10:16.573781+00:00", "meta": {"OBJECT_NAME": "IRIDIUM 33", "OBJECT_ID": "1997-051C", "EPOCH": "2025-12-26T17:19:35.200416", "MEAN_MOTION": 14.35046878, "ECCENTRICITY": 0.0008665, "INCLINATION": 86.3856, "RA_OF_ASC_NODE": 62.3518, "ARG_OF_PERICENTER": 155.733, "MEAN_ANOMALY": 204.4276, "EPHEMERIS_TYPE": 0, "CLASSIFICATION_TYPE": "U", "NORAD_CAT_ID": 24946, "ELEMENT_SET_NO": 999, "REV_AT_EPOCH": 48035, "BSTAR": 0.00011551, "MEAN_MOTION_DOT": 3.49e-06, "MEAN_MOTION_DDOT": 0}, "tle": {"line1": "1 24946U 97051C   25360.72193519  .00000349  00000+0  11551-3 0  9991", "line2": "2 24946  86.3856  62.3518 0008665 155.7330 204.4276 14.35046878480358"}}, "geometry": {"type": "Point", "coordinates": [-133.30435399328803, 76.69398651820458]}}, {"type": "Feature", "properties": {"norad_id": 33773, "name": "IRIDIUM 33 DEB", "group": "iridium-33-debris", "lat": 55.31798980174864, "lon": -130.7131138721328, "alt_km": 733.5155978830326, "timestamp": "2025-12-27T02:10:16.573820+00:00", "meta": {"OBJECT_NAME": "IRIDIUM 33 DEB", "OBJECT_ID": "1997-051L", "EPOCH": "2025-12-26T13:56:59.891136", "MEAN_MOTION": 14.43285398, "ECCENTRICITY": 0.0013338, "INCLINATION": 86.3996, "RA_OF_ASC_NODE": 54.7233, "ARG_OF_PERICENTER": 106.7873, "MEAN_ANOMALY": 253.4792, "EPHEMERIS_TYPE": 0, "CLASSIFICATION_TYPE": "U", "NORAD_CAT_ID": 33773, "ELEMENT_SET_NO": 999, "REV_AT_EPOCH": 88547, "BSTAR": 0.00030304, "MEAN_MOTION_DOT": 1.041e-05, "MEAN_MOTION_DDOT": 0}, "tle": {"line1": "1 33773U 97051L   25360.58124874  .00001041  00000+0  30304-3 0  9998", "line2": "2 33773  86.3996  54.7233 0013338 106.7873 253.4792 14.43285398885471"}}, "geometry": {"type": "Point", "coordinates": [-130.7131138721328, 55.31798980174864]}}, {"type": "Feature", "properties": {"norad_id": 33775, "name": "IRIDIUM 33 DEB", "group": "iridium-33-debris", "lat": 64.03043145241769, "lon": -144.07895365959484, "alt_km": 736.4424693866385, "timestamp": "2025-12-27T02:10:16.573836+00:00", "meta": {"OBJECT_NAME": "IRIDIUM 33 DEB", "OBJECT_ID": "1997-051N", "EPOCH": "2025-12-26T14:30:38.060352", "MEAN_MOTION": 14.41497589, "ECCENTRICITY": 0.0015385, "INCLINATION": 86.3623, "RA_OF_ASC_NODE": 43.6333, "ARG_OF_PERICENTER": 113.6049, "MEAN_ANOMALY": 2.3398, "EPHEMERIS_TYPE": 0, "CLASSIFICATION_TYPE": "U", "NORAD_CAT_ID": 33775, "ELEMENT_SET_NO": 999, "REV_AT_EPOCH": 88340, "BSTAR": 0.00033398, "MEAN_MOTION_DOT": 1.105e-05, "MEAN_MOTION_DDOT": 0}, "tle": {"line1": "1 33775U 97051N   25360.60460718  .00001105  00000+0  33398-3 0  9990", "line2": "2 33775  86.3623  43.6333 0015385 113.6049   2.3398 14.41497589883403"}}, "geometry": {"type": "Point", "coordinates": [-144.07895365959484, 64.03043145241769]}}, {"type": "Feature", "properties": {"norad_id": 33776, "name": "IRIDIUM 33 DEB", "group": "iridium-33-debris", "lat": 1.3809656019622354, "lon": -105.33780237366005, "alt_km": 757.6555364640026, "timestamp": "2025-12-27T02:10:16.573849+00:00", "meta": {"OBJECT_NAME": "IRIDIUM 33 DEB", "OBJECT_ID": "1997-051P", "EPOCH": "2025-12-26T17:34:30.701856", "MEAN_MOTION": 14.38258502, "ECCENTRICITY": 0.0015882, "INCLINATION": 86.4031, "RA_OF_ASC_NODE": 74.8995, "ARG_OF_PERICENTER": 146.2524, "MEAN_ANOMALY": 338.8136, "EPHEMERIS_TYPE": 0, "CLASSIFICATION_TYPE": "U", "NORAD_CAT_ID": 33776, "ELEMENT_SET_NO": 999, "REV_AT_EPOCH": 88283, "BSTAR": 0.00026587, "MEAN_MOTION_DOT": 8.29e-06, "MEAN_MOTION_DDOT": 0}, "tle": {"line1": "1 33776U 97051P   25360.73229979  .00000829  00000+0  26587-3 0  9991", "line2": "2 33776  86.4031  74.8995 0015882 146.2524 338.8136 14.38258502882839"}}, "geometry": {"type": "Point", "coordinates": [-105.33780237366005, 1.3809656019622354]}}, {"type": "Feature", "properties": {"norad_id": 33777, "name": "IRIDIUM 33 DEB", "group": "iridium-33-debris", "lat": 35.38308299455227, "lon": -153.61967171338196, "alt_km": 701.5251190275603, "timestamp": "2025-12-27T02:10:16.573861+00:00", "meta": {"OBJECT_NAME": "IRIDIUM 33 DEB", "OBJECT_ID": "1997-051Q", "EPOCH": "2025-12-26T18:54:38.233728", "MEAN_MOTION": 14.55709747, "ECCENTRICITY": 0.0006508, "INCLINATION": 86.3775, "RA_OF_ASC_NODE": 29.0907, "ARG_OF_PERICENTER": 190.9018, "MEAN_ANOMALY": 169.205, "EPHEMERIS_TYPE": 0, "CLASSIFICATION_TYPE": "U", "NORAD_CAT_ID": 33777, "ELEMENT_SET_NO": 999, "REV_AT_EPOCH": 88738, "BSTAR": 0.00082529, "MEAN_MOTION_DOT": 3.628e-05, "MEAN_MOTION_DDOT": 0}, "tle": {"line1": "1 33777U 97051Q   25360.78794252  .00003628  00000+0  82529-3 0  9996", "line2": "2 33777  86.3775  29.0907 0006508 190.9018 169.2050 14.55709747887385"}}, "geometry": {"type": "Point", "coordinates": [-153.61967171338196, 35.38308299455227]}}, {"type": "Feature", "properties": {"norad_id": 33850, "name": "IRIDIUM 33 DEB", "group": "iridium-33-debris", "lat": 48.100057753795795, "lon": -160.08170872504013, "alt_km": 737.8042775302129, "timestamp": "2025-12-27T02:10:16.573873+00:00", "meta": {"OBJECT_NAME": "IRIDIUM 33 DEB", "OBJECT_ID": "1997-051T", "EPOCH": "2025-12-26T19:42:08.737344", "MEAN_MOTION": 14.4218265, "ECCENTRICITY": 0.0013363, "INCLINATION": 86.3409, "RA_OF_ASC_NODE": 24.124, "ARG_OF_PERICENTER": 119.2771, "MEAN_ANOMALY": 53.885, "EPHEMERIS_TYPE": 0, "CLASSIFICATION_TYPE": "U", "NORAD_CAT_ID": 33850, "ELEMENT_SET_NO": 999, "REV_AT_EPOCH": 88355, "BSTAR": 0.00045325, "MEAN_MOTION_DOT": 1.513e-05, "MEAN_MOTION_DDOT": 0}, "tle": {"line1": "1 33850U 97051T   25360.82093446  .00001513  00000+0  45325-3 0  9994", "line2": "2 33850  86.3409  24.1240 0013363 119.2771  53.8850 14.42182650883559"}}, "geometry": {"type": "Point", "coordinates": [-160.08170872504013, 48.100057753795795]}}, {"type": "Feature", "properties": {"norad_id": 33853, "name": "IRIDIUM 33 DEB", "group": "iridium-33-debris", "lat": 85.90050787682009, "lon": 86.03385059817101, "alt_km": 914.3272678859676, "timestamp": "2025-12-27T02:10:16.573886+00:00", "meta": {"OBJECT_NAME": "IRIDIUM 33 DEB", "OBJECT_ID": "1997-051W", "EPOCH": "2025-12-26T10:52:30.839808", "MEAN_MOTION": 13.99126555, "ECCENTRICITY": 0.0207803, "INCLINATION": 86.0001, "RA_OF_ASC_NODE": 343.7973, "ARG_OF_PERICENTER": 193.5253, "MEAN_ANOMALY": 291.4961, "EPHEMERIS_TYPE": 0, "CLASSIFICATION_TYPE": "U", "NORAD_CAT_ID": 33853, "ELEMENT_SET_NO": 999, "REV_AT_EPOCH": 85537, "BSTAR": 0.0011675, "MEAN_MOTION_DOT": 2.052e-05, "MEAN_MOTION_DDOT": 0}, "tle": {"line1": "1 33853U 97051W   25360.45313472  .00002052  00000+0  11675-2 0  9999", "line2": "2 33853  86.0001 343.7973 0207803 193.5253 291.4961 13.99126555855379"}}, "geometry": {"type": "Point", "coordinates": [86.03385059817101, 85.90050787682009]}}, {"type": "Feature", "properties": {"norad_id": 33860, "name": "IRIDIUM 33 DEB", "group": "iridium-33-debris", "lat": -69.68409705536182, "lon": 11.04539561707676, "alt_km": 672.2537773992508, "timestamp": "2025-12-27T02:10:16.573898+00:00", "meta": {"OBJECT_NAME": "IRIDIUM 33 DEB", "OBJECT_ID": "1997-051AD", "EPOCH": "2025-12-26T19:07:15.553920", "MEAN_MOTION": 14.67538628, "ECCENTRICITY": 0.0005824, "INCLINATION": 86.3826, "RA_OF_ASC_NODE": 21.014, "ARG_OF_PERICENTER": 301.0056, "MEAN_ANOMALY": 238.0804, "EPHEMERIS_TYPE": 0, "CLASSIFICATION_TYPE": "U", "NORAD_CAT_ID": 33860, "ELEMENT_SET_NO": 999, "REV_AT_EPOCH": 88928, "BSTAR": 0.0012282, "MEAN_MOTION_DOT": 6.989e-05, "MEAN_MOTION_DDOT": 0}, "tle": {"line1": "1 33860U 97051AD  25360.79670780  .00006989  00000+0  12282-2 0  9990", "line2": "2 33860  86.3826  21.0140 0005824 301.0056 238.0804 14.67538628889287"}}, "geometry": {"type": "Point", "coordinates": [11.04539561707676, -69.68409705536182]}}, {"type": "Feature", "properties": {"norad_id": 33862, "name": "IRIDIUM 33 DEB", "group": "iridium-33-debris", "lat": 75.50509922977099, "lon": 45.261612483258034, "alt_km": 633.8954278502724, "timestamp": "2025-12-27T02:10:16.573909+00:00", "meta": {"OBJECT_NAME": "IRIDIUM 33 DEB", "OBJECT_ID": "1997-051AF", "EPOCH": "2025-12-26T14:56:06.808128", "MEAN_MOTION": 14.69701742, "ECCENTRICITY": 0.0051898, "INCLINATION": 86.4083, "RA_OF_ASC_NODE": 31.4067, "ARG_OF_PERICENTER": 22.4772, "MEAN_ANOMALY": 97.5758, "EPHEMERIS_TYPE": 0, "CLASSIFICATION_TYPE": "U", "NORAD_CAT_ID": 33862, "ELEMENT_SET_NO": 999, "REV_AT_EPOCH": 89027, "BSTAR": 0.0015611, "MEAN_MOTION_DOT": 9.518e-05, "MEAN_MOTION_DDOT": 0}, "tle": {"line1": "1 33862U 97051AF  25360.62230102  .00009518  00000+0  15611-2 0  9994", "line2": "2 33862  86.4083  31.4067 0051898  22.4772  97.5758 14.69701742890277"}}, "geometry": {"type": "Point", "coordinates": [45.261612483258034, 75.50509922977099]}}, {"type": "Feature", "properties": {"norad_id": 33866, "name": "IRIDIUM 33 DEB", "group": "iridium-33-debris", "lat": 14.559104793327966, "lon": 87.92759600372212, "alt_km": 823.5578776170887, "timestamp": "2025-12-27T02:10:16.573920+00:00", "meta": {"OBJECT_NAME": "IRIDIUM 33 DEB", "OBJECT_ID": "1997-051AK", "EPOCH": "2025-12-26T16:41:52.800000", "MEAN_MOTION": 14.25317881, "ECCENTRICITY": 0.0115243, "INCLINATION": 86.2998, "RA_OF_ASC_NODE": 87.1316, "ARG_OF_PERICENTER": 117.1751, "MEAN_ANOMALY": 34.7291, "EPHEMERIS_TYPE": 0, "CLASSIFICATION_TYPE": "U", "NORAD_CAT_ID": 33866, "ELEMENT_SET_NO": 999, "REV_AT_EPOCH": 87009, "BSTAR": 0.00062512, "MEAN_MOTION_DOT": 1.597e-05, "MEAN_MOTION_DDOT": 0}, "tle": {"line1": "1 33866U 97051AK  25360.69575000  .00001597  00000+0  62512-3 0  9996", "line2": "2 33866  86.2998  87.1316 0115243 117.1751  34.7291 14.25317881870095"}}, "geometry": {"type": "Point", "coordinates": [87.92759600372212, 14.559104793327966]}}]}